NORAD_CAT_ID,OBJECT_NAME,OBJECT_TYPE,EPOCH,MEAN_MOTION,ECCENTRICITY,INCLINATION,RA_OF_ASC_NODE,ARG_OF_PERICENTER,MEAN_ANOMALY,BSTAR,MEAN_MOTION_DOT,MEAN_MOTION_DDOT,TLE_LINE0,TLE_LINE1,TLE_LINE2,SEMIMAJOR_AXIS,PERIOD,APOGEE,PERIGEE,DECAYED
52362.0,STARLINK-3848,PAYLOAD,2024-05-19 18:18:47,15.08834536,0.0001689,53.2165,267.1565,114.339,245.7779,0.002071,0.00032821,0.0,0 STARLINK-3848,1 52362U 22045AH  24140.76305328  .00032821  00000-0  20710-2 0  9994,2 52362  53.2165 267.1565 0001689 114.3390 245.7779 15.08834536116449,6917.897,95.438,540.931,538.594,0.0
52362.0,STARLINK-3848,PAYLOAD,2024-05-20 13:23:25,15.08854399,0.0001664,53.2175,263.5852,108.1949,251.9224,0.0011318,0.00017778,0.0,0 STARLINK-3848,1 52362U 22045AH  24141.55793301  .00017778  00000-0  11318-2 0  9992,2 52362  53.2175 263.5852 0001664 108.1949 251.9224 15.08854399116569,6917.836,95.437,540.853,538.55,0.0
52362.0,STARLINK-3848,PAYLOAD,2024-05-21 13:14:12,15.08846541,0.0001653,53.2176,259.1253,119.875,240.2406,0.00071668,0.00011138,0.0,0 STARLINK-3848,1 52362U 22045AH  24142.55153388  .00011138  00000-0  71668-3 0  9997,2 52362  53.2176 259.1253 0001653 119.8750 240.2406 15.08846541116713,6917.86,95.437,540.869,538.582,0.0
52362.0,STARLINK-3848,PAYLOAD,2024-05-21 14:49:35,15.08842414,0.0001531,53.2176,258.8272,116.2105,243.9045,0.0010009,0.00015678,0.0,0 STARLINK-3848,1 52362U 22045AH  24142.61777475  .00015678  00000-0  10009-2 0  9997,2 52362  53.2176 258.8272 0001531 116.2105 243.9045 15.08842414116725,6917.873,95.437,540.797,538.679,0.0
52362.0,STARLINK-3848,PAYLOAD,2024-05-22 11:29:36,15.08844665,0.0001688,53.2178,254.9672,121.8977,238.218,0.00027285,4.058e-05,0.0,0 STARLINK-3848,1 52362U 22045AH  24143.47889522  .00004058  00000-0  27285-3 0  9994,2 52362  53.2178 254.9672 0001688 121.8977 238.2180 15.08844665116851,6917.866,95.437,540.899,538.563,0.0
52362.0,STARLINK-3848,PAYLOAD,2024-05-23 12:55:47,15.0883649,0.0001476,53.2184,250.2116,111.3882,248.7268,5.0349e-05,5.13e-06,0.0,0 STARLINK-3848,1 52362U 22045AH  24144.53874142  .00000513  00000-0  50349-4 0  9994,2 52362  53.2184 250.2116 0001476 111.3882 248.7268 15.08836490117013,6917.891,95.438,540.777,538.735,0.0
52362.0,STARLINK-3848,PAYLOAD,2024-05-23 14:31:10,15.08840297,0.0001245,53.2166,249.9106,85.6594,274.4541,0.00014075,1.953e-05,0.0,0 STARLINK-3848,1 52362U 22045AH  24144.60498092  .00001953  00000-0  14075-3 0  9992,2 52362  53.2166 249.9106 0001245  85.6594 274.4541 15.08840297117025,6917.879,95.438,540.606,538.883,0.0
52362.0,STARLINK-3848,PAYLOAD,2024-05-24 12:46:34,15.08829292,0.0001711,53.2161,245.7483,59.9143,300.2019,0.00085349,0.00013317,0.0,0 STARLINK-3848,1 52362U 22045AH  24145.53234936  .00013317  00000-0  85349-3 0  9999,2 52362  53.2161 245.7483 0001711  59.9143 300.2019 15.08829292117169,6917.913,95.438,540.962,538.594,0.0
52362.0,STARLINK-3848,PAYLOAD,2024-05-24 14:21:56,15.08864788,0.0001199,53.2161,245.446,107.751,252.3613,0.00062741,9.718e-05,0.0,0 STARLINK-3848,1 52362U 22045AH  24145.59857132  .00009718  00000-0  62741-3 0  9995,2 52362  53.2161 245.4460 0001199 107.7510 252.3613 15.08864788117178,6917.805,95.436,540.499,538.84,0.0
52362.0,STARLINK-3848,PAYLOAD,2024-05-24 23:54:16,15.08809708,4.01e-05,53.2146,243.6663,123.6349,236.4681,-0.0007456,-0.00012124,0.0,0 STARLINK-3848,1 52362U 22045AH  24145.99602400 -.00012124  00000-0 -74560-3 0  9994,2 52362  53.2146 243.6663 0000401 123.6349 236.4681 15.08809708117234,6917.973,95.439,540.115,539.561,0.0
52362.0,STARLINK-3848,PAYLOAD,2024-05-25 12:37:21,15.08831857,0.0001366,53.2141,241.2885,74.4168,285.6975,-0.00013504,-2.436e-05,0.0,0 STARLINK-3848,1 52362U 22045AH  24146.52594417 -.00002436  00000-0 -13504-3 0  9998,2 52362  53.2141 241.2885 0001366  74.4168 285.6975 15.08831857117313,6917.905,95.438,540.715,538.825,0.0
52362.0,STARLINK-3848,PAYLOAD,2024-05-26 12:28:08,15.08843056,0.0001254,53.215,236.8282,76.3268,283.7863,-3.1258e-05,-7.85e-06,0.0,0 STARLINK-3848,1 52362U 22045AH  24147.51954419 -.00000785  00000-0 -31258-4 0  9992,2 52362  53.2150 236.8282 0001254  76.3268 283.7863 15.08843056117467,6917.871,95.437,540.604,538.869,0.0
52362.0,STARLINK-3848,PAYLOAD,2024-05-27 12:18:56,15.08840405,0.0001339,53.216,232.3658,91.3154,268.7991,0.0002141,3.121e-05,0.0,0 STARLINK-3848,1 52362U 22045AH  24148.51314885  .00003121  00000-0  21410-3 0  9993,2 52362  53.2160 232.3658 0001339  91.3154 268.7991 15.08840405117618,6917.879,95.438,540.67,538.818,0.0
52362.0,STARLINK-3848,PAYLOAD,2024-05-27 15:29:42,15.08841441,0.0001306,53.216,231.7703,92.5466,267.5676,0.0002108,3.069e-05,0.0,0 STARLINK-3848,1 52362U 22045AH  24148.64562784  .00003069  00000-0  21080-3 0  9994,2 52362  53.2160 231.7703 0001306  92.5466 267.5676 15.08841441117635,6917.876,95.437,540.644,538.838,0.0
52362.0,STARLINK-3848,PAYLOAD,2024-05-28 12:09:42,15.088457,0.0001299,53.216,227.9036,94.3259,265.7882,0.00017186,2.449e-05,0.0,0 STARLINK-3848,1 52362U 22045AH  24149.50674485  .00002449  00000-0  17186-3 0  9995,2 52362  53.2160 227.9036 0001299  94.3259 265.7882 15.08845700117767,6917.863,95.437,540.627,538.829,0.0
52362.0,STARLINK-3848,PAYLOAD,2024-05-29 05:38:57,15.08839627,0.0001333,53.2159,224.6334,80.4443,279.6699,2.8821e-05,1.71e-06,0.0,0 STARLINK-3848,1 52362U 22045AH  24150.23538728  .00000171  00000-0  28821-4 0  9995,2 52362  53.2159 224.6334 0001333  80.4443 279.6699 15.08839627117873,6917.882,95.438,540.669,538.824,0.0
52362.0,STARLINK-3848,PAYLOAD,2024-05-29 10:25:07,15.08837838,0.000129,53.2169,223.7412,85.6596,274.4544,5.9283e-05,6.56e-06,0.0,0 STARLINK-3848,1 52362U 22045AH  24150.43411046  .00000656  00000-0  59283-4 0  9994,2 52362  53.2169 223.7412 0001290  85.6596 274.4544 15.08837838117907,6917.887,95.438,540.644,538.86,0.0
52362.0,STARLINK-3848,PAYLOAD,2024-05-30 10:15:53,15.08844947,0.0001374,53.2177,219.2851,95.0337,265.0812,9.1317e-05,1.166e-05,0.0,0 STARLINK-3848,1 52362U 22045AH  24151.42770522  .00001166  00000-0  91317-4 0  9992,2 52362  53.2177 219.2851 0001374  95.0337 265.0812 15.08844947118054,6917.865,95.437,540.681,538.78,0.0
52362.0,STARLINK-3848,PAYLOAD,2024-05-30 11:51:16,15.08846516,0.0001357,53.2174,218.9847,92.557,267.5578,0.0001505,2.109e-05,0.0,0 STARLINK-3848,1 52362U 22045AH  24151.49394322  .00002109  00000-0  15050-3 0  9996,2 52362  53.2174 218.9847 0001357  92.5570 267.5578 15.08846516118065,6917.86,95.437,540.664,538.787,0.0
52362.0,STARLINK-3848,PAYLOAD,2024-05-31 11:42:04,15.08842006,0.0001391,53.2173,214.5248,90.4868,269.6284,0.00011105,1.48e-05,0.0,0 STARLINK-3848,1 52362U 22045AH  24152.48754716  .00001480  00000-0  11105-3 0  9991,2 52362  53.2173 214.5248 0001391  90.4868 269.6284 15.08842006118210,6917.874,95.437,540.702,538.777,0.0
52362.0,STARLINK-3848,PAYLOAD,2024-06-01 03:35:55,15.08837302,0.0001442,53.2174,211.553,82.3618,277.7537,2.4297e-05,9.9e-07,0.0,0 STARLINK-3848,1 52362U 22045AH  24153.14995350  .00000099  00000-0  24297-4 0  9998,2 52362  53.2174 211.5530 0001442  82.3618 277.7537 15.08837302118317,6917.889,95.438,540.751,538.756,0.0
52362.0,STARLINK-3848,PAYLOAD,2024-06-01 11:32:51,15.08838809,0.0001382,53.2169,210.0664,84.2855,275.8294,-9.9895e-06,-4.47e-06,0.0,0 STARLINK-3848,1 52362U 22045AH  24153.48115385 -.00000447  00000-0 -99895-5 0  9993,2 52362  53.2169 210.0664 0001382  84.2855 275.8294 15.08838809118367,6917.884,95.438,540.705,538.793,0.0
52362.0,STARLINK-3848,PAYLOAD,2024-06-02 09:48:15,15.08843448,0.000133,53.216,205.9022,80.5207,279.5935,0.00013965,1.936e-05,0.0,0 STARLINK-3848,1 52362U 22045AH  24154.40850699  .00001936  00000-0  13965-3 0  9994,2 52362  53.2160 205.9022 0001330  80.5207 279.5935 15.08843448118506,6917.87,95.437,540.655,538.815,0.0
52362.0,STARLINK-3848,PAYLOAD,2024-06-03 03:17:29,15.08840132,0.0001311,53.2156,202.6299,84.8247,275.2895,9.1812e-05,1.174e-05,0.0,0 STARLINK-3848,1 52362U 22045AH  24155.13715066  .00001174  00000-0  91812-4 0  9995,2 52362  53.2156 202.6299 0001311  84.8247 275.2895 15.08840132118618,6917.88,95.438,540.652,538.838,0.0
52362.0,STARLINK-3848,PAYLOAD,2024-06-03 09:39:02,15.08843289,0.0001317,53.2155,201.4396,89.3038,270.8105,0.00011545,1.55e-05,0.0,0 STARLINK-3848,1 52362U 22045AH  24155.40210884  .00001550  00000-0  11545-3 0  9995,2 52362  53.2155 201.4396 0001317  89.3038 270.8105 15.08843289118651,6917.87,95.437,540.646,538.824,0.0
52362.0,STARLINK-3848,PAYLOAD,2024-06-04 09:29:49,15.08843632,0.0001323,53.2155,196.9791,90.2326,269.8818,2.8434e-05,1.65e-06,0.0,0 STARLINK-3848,1 52362U 22045AH  24156.39570961  .00000165  00000-0  28434-4 0  9996,2 52362  53.2155 196.9791 0001323  90.2326 269.8818 15.08843632118804,6917.869,95.437,540.65,538.819,0.0
52362.0,STARLINK-3848,PAYLOAD,2024-06-05 09:20:36,15.08843698,0.0001346,53.2162,192.5196,91.4046,268.71,7.1645e-05,8.53e-06,0.0,0 STARLINK-3848,1 52362U 22045AH  24157.38930704  .00000853  00000-0  71645-4 0  9997,2 52362  53.2162 192.5196 0001346  91.4046 268.7100 15.08843698118950,6917.869,95.437,540.665,538.803,0.0
52362.0,STARLINK-3848,PAYLOAD,2024-06-05 18:52:55,15.08838897,0.0001314,53.2158,190.7354,89.743,270.3713,4.2822e-05,3.94e-06,0.0,0 STARLINK-3848,1 52362U 22045AH  24157.78675089  .00000394  00000-0  42822-4 0  9998,2 52362  53.2158 190.7354 0001314  89.7430 270.3713 15.08838897119015,6917.884,95.438,540.658,538.84,0.0
52362.0,STARLINK-3848,PAYLOAD,2024-06-06 09:11:24,15.08830615,0.0001428,53.2168,188.0624,98.4039,261.7115,-5.2903e-05,-1.13e-05,0.0,0 STARLINK-3848,1 52362U 22045AH  24158.38292166 -.00001130  00000-0 -52903-4 0  9998,2 52362  53.2168 188.0624 0001428  98.4039 261.7115 15.08830615119104,6917.909,95.438,540.762,538.786,0.0
52362.0,STARLINK-3848,PAYLOAD,2024-06-07 09:02:10,15.0884132,0.0001437,53.2169,183.6011,97.161,262.9545,5.5507e-05,5.96e-06,0.0,0 STARLINK-3848,1 52362U 22045AH  24159.37651476  .00000596  00000-0  55507-4 0  9997,2 52362  53.2169 183.6011 0001437  97.1610 262.9545 15.08841320119258,6917.876,95.437,540.735,538.747,0.0
